NORAD_CAT_ID,OBJECT_NAME,OBJECT_TYPE,EPOCH,MEAN_MOTION,ECCENTRICITY,INCLINATION,RA_OF_ASC_NODE,ARG_OF_PERICENTER,MEAN_ANOMALY,BSTAR,MEAN_MOTION_DOT,MEAN_MOTION_DDOT,TLE_LINE0,TLE_LINE1,TLE_LINE2,SEMIMAJOR_AXIS,PERIOD,APOGEE,PERIGEE,DECAYED
53150.0,STARLINK-4038,PAYLOAD,2024-08-01 20:17:46,15.08838461,0.0001368,53.2171,269.5881,92.7923,267.3226,-2.9333e-05,-7.55e-06,0.0,0 STARLINK-4038,1 53150U 22083U   24214.84567354 -.00000755  00000-0 -29333-4 0  9997,2 53150  53.2171 269.5881 0001368  92.7923 267.3226 15.08838461113067,6917.885,95.438,540.696,538.804,0.0
53150.0,STARLINK-4038,PAYLOAD,2024-08-02 10:36:15,15.08822815,0.0001591,53.2182,266.9152,93.0291,267.0883,-0.00013701,-2.467e-05,0.0,0 STARLINK-4038,1 53150U 22083U   24215.44185115 -.00002467  00000-0 -13701-3 0  9998,2 53150  53.2182 266.9152 0001591  93.0291 267.0883 15.08822815113782,6917.933,95.439,540.899,538.697,0.0
53150.0,STARLINK-4038,PAYLOAD,2024-08-02 20:08:35,15.08819788,0.0001565,53.2168,265.1308,97.169,262.9481,-0.00020993,-3.626e-05,0.0,0 STARLINK-4038,1 53150U 22083U   24215.83929893 -.00003626  00000-0 -20993-3 0  9999,2 53150  53.2168 265.1308 0001565  97.1690 262.9481 15.08819788113210,6917.942,95.439,540.89,538.725,0.0
53150.0,STARLINK-4038,PAYLOAD,2024-08-03 12:02:26,15.08826692,0.0001367,53.215,262.1527,74.5819,285.5324,-6.5218e-06,-3.92e-06,0.0,0 STARLINK-4038,1 53150U 22083U   24216.50169817 -.00000392  00000-0 -65218-5 0  9994,2 53150  53.2150 262.1527 0001367  74.5819 285.5324 15.08826692113942,6917.921,95.438,540.732,538.84,0.0
53150.0,STARLINK-4038,PAYLOAD,2024-08-03 19:59:21,15.08835689,0.0001473,53.2164,260.6661,84.5254,275.5906,7.9054e-05,9.7e-06,0.0,0 STARLINK-4038,1 53150U 22083U   24216.83289171  .00000970  00000-0  79054-4 0  9998,2 53150  53.2164 260.6661 0001473  84.5254 275.5906 15.08835689113997,6917.894,95.438,540.778,538.74,0.0
53150.0,STARLINK-4038,PAYLOAD,2024-08-04 11:53:12,15.08847476,0.0001587,53.2157,257.6938,86.6366,273.4808,0.0003102,4.653e-05,0.0,0 STARLINK-4038,1 53150U 22083U   24217.49528241  .00004653  00000-0  31020-3 0  9997,2 53150  53.2157 257.6938 0001587  86.6366 273.4808 15.08847476114092,6917.858,95.437,540.82,538.625,0.0
53150.0,STARLINK-4038,PAYLOAD,2024-08-05 19:40:55,15.08846431,0.0001703,53.2176,251.7488,86.3958,273.7229,0.00010801,1.432e-05,0.0,0 STARLINK-4038,1 53150U 22083U   24218.82008442  .00001432  00000-0  10801-3 0  9997,2 53150  53.2176 251.7488 0001703  86.3958 273.7229 15.08846431114294,6917.861,95.437,540.904,538.548,0.0
53150.0,STARLINK-4038,PAYLOAD,2024-08-06 11:34:47,15.088438,0.000174,53.2176,248.7718,100.7994,259.3194,-0.00013414,-2.423e-05,0.0,0 STARLINK-4038,1 53150U 22083U   24219.48248958 -.00002423  00000-0 -13414-3 0  9994,2 53150  53.2176 248.7718 0001740 100.7994 259.3194 15.08843800114397,6917.869,95.437,540.937,538.53,0.0
53150.0,STARLINK-4038,PAYLOAD,2024-08-07 01:53:14,15.08849924,0.000146,53.2167,246.0959,101.1517,258.964,-4.62e-05,-1.023e-05,0.0,0 STARLINK-4038,1 53150U 22083U   24220.07864097 -.00001023  00000-0 -46200-4 0  9994,2 53150  53.2167 246.0959 0001460 101.1517 258.9640 15.08849924114484,6917.85,95.437,540.725,538.705,0.0
53150.0,STARLINK-4038,PAYLOAD,2024-08-08 11:16:20,15.08843624,0.000146,53.2162,239.8526,103.5116,256.6039,0.00016939,2.409e-05,0.0,0 STARLINK-4038,1 53150U 22083U   24221.46968019  .00002409  00000-0  16939-3 0  9999,2 53150  53.2162 239.8526 0001460 103.5116 256.6039 15.08843624114062,6917.869,95.437,540.744,538.724,0.0
53150.0,STARLINK-4038,PAYLOAD,2024-08-09 06:20:57,15.08846769,0.0001476,53.2161,236.2829,105.4313,254.6842,5.3424e-05,5.63e-06,0.0,0 STARLINK-4038,1 53150U 22083U   24222.26455914  .00000563  00000-0  53424-4 0  9993,2 53150  53.2161 236.2829 0001476 105.4313 254.6842 15.08846769114181,6917.86,95.437,540.746,538.704,0.0
53150.0,STARLINK-4038,PAYLOAD,2024-08-09 17:28:39,15.08850267,0.0001345,53.2155,234.2014,82.2303,277.8842,-0.00010712,-1.993e-05,0.0,0 STARLINK-4038,1 53150U 22083U   24222.72823921 -.00001993  00000-0 -10712-3 0  9993,2 53150  53.2155 234.2014 0001345  82.2303 277.8842 15.08850267114886,6917.849,95.437,540.644,538.784,0.0
53150.0,STARLINK-4038,PAYLOAD,2024-08-10 04:36:22,15.0883536,0.0001355,53.2163,232.1207,84.8968,275.2179,-4.5445e-06,-3.6e-06,0.0,0 STARLINK-4038,1 53150U 22083U   24223.19192798 -.00000360  00000-0 -45445-5 0  9996,2 53150  53.2163 232.1207 0001355  84.8968 275.2179 15.08835360114952,6917.895,95.438,540.697,538.822,0.0
53150.0,STARLINK-4038,PAYLOAD,2024-08-10 07:47:08,15.08837296,0.0001383,53.2165,231.5262,85.1183,274.9967,8.0863e-06,-1.59e-06,0.0,0 STARLINK-4038,1 53150U 22083U   24223.32440634 -.00000159  00000-0  80863-5 0  9994,2 53150  53.2165 231.5262 0001383  85.1183 274.9967 15.08837296114346,6917.889,95.438,540.71,538.797,0.0
53150.0,STARLINK-4038,PAYLOAD,2024-08-11 01:16:22,15.08841574,0.0001368,53.2166,228.2579,94.6811,265.4337,5.5247e-05,5.91e-06,0.0,0 STARLINK-4038,1 53150U 22083U   24224.05304299  .00000591  00000-0  55247-4 0  9997,2 53150  53.2166 228.2579 0001368  94.6811 265.4337 15.08841574115089,6917.876,95.437,540.687,538.794,0.0
53150.0,STARLINK-4038,PAYLOAD,2024-08-11 09:13:18,15.08849093,0.0001389,53.2164,226.77,90.8373,269.2779,0.00011606,1.56e-05,0.0,0 STARLINK-4038,1 53150U 22083U   24224.38423691  .00001560  00000-0  11606-3 0  9998,2 53150  53.2164 226.7700 0001389  90.8373 269.2779 15.08849093115132,6917.853,95.437,540.678,538.757,0.0
53150.0,STARLINK-4038,PAYLOAD,2024-08-11 17:10:14,15.08846031,0.0001413,53.2168,225.2835,92.7215,267.3939,5.5699e-05,5.99e-06,0.0,0 STARLINK-4038,1 53150U 22083U   24224.71543993  .00000599  00000-0  55699-4 0  9995,2 53150  53.2168 225.2835 0001413  92.7215 267.3939 15.08846031114554,6917.862,95.437,540.704,538.749,0.0
53150.0,STARLINK-4038,PAYLOAD,2024-08-12 04:17:57,15.08830405,0.000167,53.2184,223.1975,80.3332,279.7849,4.1391e-05,3.71e-06,0.0,0 STARLINK-4038,1 53150U 22083U   24225.17913243  .00000371  00000-0  41391-4 0  9997,2 53150  53.2184 223.1975 0001670  80.3332 279.7849 15.08830405115255,6917.91,95.438,540.93,538.619,0.0
53150.0,STARLINK-4038,PAYLOAD,2024-08-12 09:04:05,15.08843706,0.0001295,53.2162,222.3054,94.0291,266.085,0.0001095,1.455e-05,0.0,0 STARLINK-4038,1 53150U 22083U   24225.37784092  .00001455  00000-0  10950-3 0  9997,2 53150  53.2162 222.3054 0001295  94.0291 266.0850 15.08843706115281,6917.869,95.437,540.63,538.838,0.0
53150.0,STARLINK-4038,PAYLOAD,2024-08-12 17:01:02,15.08823285,0.0001412,53.217,220.8177,90.3008,269.8146,-6.9792e-05,-1.398e-05,0.0,0 STARLINK-4038,1 53150U 22083U   24225.70906183 -.00001398  00000-0 -69792-4 0  9998,2 53150  53.2170 220.8177 0001412  90.3008 269.8146 15.08823285115330,6917.931,95.439,540.773,538.82,0.0
53150.0,STARLINK-4038,PAYLOAD,2024-08-13 05:44:08,15.08826468,0.0001313,53.2162,218.4404,91.9021,268.2121,-0.00011248,-2.077e-05,0.0,0 STARLINK-4038,1 53150U 22083U   24226.23898460 -.00002077  00000-0 -11248-3 0  9992,2 53150  53.2162 218.4404 0001313  91.9021 268.2121 15.08826468114789,6917.922,95.438,540.695,538.878,0.0
53150.0,STARLINK-4038,PAYLOAD,2024-08-13 16:51:49,15.08837846,0.0001514,53.2162,216.3599,90.644,269.4726,2.2616e-05,7.2e-07,0.0,0 STARLINK-4038,1 53150U 22083U   24226.70265668  .00000072  00000-0  22616-4 0  9995,2 53150  53.2162 216.3599 0001514  90.6440 269.4726 15.08837846115489,6917.887,95.438,540.799,538.705,0.0
53150.0,STARLINK-4038,PAYLOAD,2024-08-13 23:13:22,15.08834061,0.0001542,53.2162,215.1698,92.6507,267.4662,0.00014279,1.985e-05,0.0,0 STARLINK-4038,1 53150U 22083U   24226.96761758  .00001985  00000-0  14279-3 0  9993,2 53150  53.2162 215.1698 0001542  92.6507 267.4662 15.08834061114890,6917.899,95.438,540.83,538.697,0.0
53150.0,STARLINK-4038,PAYLOAD,2024-08-14 05:34:54,15.08840014,0.0001417,53.2146,213.9811,94.2682,265.8472,0.0002926,4.372e-05,0.0,0 STARLINK-4038,1 53150U 22083U   24227.23257847  .00004372  00000-0  29260-3 0  9992,2 53150  53.2146 213.9811 0001417  94.2682 265.8472 15.08840014114939,6917.88,95.438,540.726,538.765,0.0
53150.0,STARLINK-4038,PAYLOAD,2024-08-14 16:42:36,15.08845582,0.0001451,53.2147,211.8996,99.2007,260.915,0.00023909,3.52e-05,0.0,0 STARLINK-4038,1 53150U 22083U   24227.69625612  .00003520  00000-0  23909-3 0  9999,2 53150  53.2147 211.8996 0001451  99.2007 260.9150 15.08845582115008,6917.863,95.437,540.732,538.725,0.0
53150.0,STARLINK-4038,PAYLOAD,2024-08-15 05:25:41,15.08850703,0.0001558,53.2146,209.521,95.7481,264.3688,0.00035665,5.394e-05,0.0,0 STARLINK-4038,1 53150U 22083U   24228.22617586  .00005394  00000-0  35665-3 0  9993,2 53150  53.2146 209.5210 0001558  95.7481 264.3688 15.08850703115718,6917.848,95.437,540.79,538.635,0.0
53150.0,STARLINK-4038,PAYLOAD,2024-08-16 05:16:28,15.08847696,0.0001528,53.2147,205.0604,91.8688,268.2479,0.00010139,1.326e-05,0.0,0 STARLINK-4038,1 53150U 22083U   24229.21977336  .00001326  00000-0  10139-3 0  9995,2 53150  53.2147 205.0604 0001528  91.8688 268.2479 15.08847696115864,6917.857,95.437,540.779,538.665,0.0
53150.0,STARLINK-4038,PAYLOAD,2024-08-17 05:07:15,15.08850053,0.0001584,53.215,200.6014,90.1404,269.9769,7.225e-05,8.62e-06,0.0,0 STARLINK-4038,1 53150U 22083U   24230.21336818  .00000862  00000-0  72250-4 0  9998,2 53150  53.2150 200.6014 0001584  90.1404 269.9769 15.08850053115382,6917.85,95.437,540.81,538.619,0.0
53150.0,STARLINK-4038,PAYLOAD,2024-08-18 03:22:39,15.08839773,0.0001656,53.2157,196.4351,87.4514,272.6667,3.0667e-05,2e-06,0.0,0 STARLINK-4038,1 53150U 22083U   24231.14073170  .00000200  00000-0  30667-4 0  9992,2 53150  53.2157 196.4351 0001656  87.4514 272.6667 15.08839773116156,6917.881,95.438,540.892,538.6,0.0
53150.0,STARLINK-4038,PAYLOAD,2024-08-18 06:33:25,15.08842006,0.0001685,53.2161,195.8416,88.6212,271.4973,5.7768e-05,6.31e-06,0.0,0 STARLINK-4038,1 53150U 22083U   24231.27321047  .00000631  00000-0  57768-4 0  9994,2 53150  53.2161 195.8416 0001685  88.6212 271.4973 15.08842006115548,6917.874,95.437,540.905,538.574,0.0
